{
"type": "FeatureCollection",
"name": "contour",
"crs": { "type": "name", "properties": { "name": "urn:ogc:def:crs:OGC:1.3:CRS84" } },
"features": [
{ "type": "Feature", "properties": { "ID": 0, "elev": 682.752 }, "geometry": { "type": "LineString", "coordinates": [ [ -80.378337, 37.888995 ], [ -80.378317, 37.888974 ], [ -80.378299, 37.888995 ] ] } },
{ "type": "Feature", "properties": { "ID": 1, "elev": 687.324 }, "geometry": { "type": "LineString", "coordinates": [ [ -80.378614, 37.888997 ], [ -80.378602, 37.888981 ], [ -80.378572, 37.888996 ] ] } },
{ "type": "Feature", "properties": { "ID": 2, "elev": 696.468 }, "geometry": { "type": "LineString", "coordinates": [ [ -80.378861, 37.888998 ], [ -80.378841, 37.888969 ], [ -80.378817, 37.888998 ] ] } },
{ "type": "Feature", "properties": { "ID": 3, "elev": 702.564 }, "geometry": { "type": "LineString", "coordinates": [ [ -80.379226, 37.888982 ], [ -80.379228, 37.888982 ] ] } },
{ "type": "Feature", "properties": { "ID": 4, "elev": 684.276 }, "geometry": { "type": "LineString", "coordinates": [ [ -80.378367, 37.888995 ], [ -80.378357, 37.888973 ], [ -80.378329, 37.888958 ], [ -80.378272, 37.888972 ], [ -80.378248, 37.888995 ] ] } },
{ "type": "Feature", "properties": { "ID": 5, "elev": 688.848 }, "geometry": { "type": "LineString", "coordinates": [ [ -80.378632, 37.888997 ], [ -80.378624, 37.888974 ], [ -80.378602, 37.888963 ], [ -80.378526, 37.888983 ], [ -80.378516, 37.888996 ] ] } },
{ "type": "Feature", "properties": { "ID": 6, "elev": 685.8 }, "geometry": { "type": "LineString", "coordinates": [ [ -80.378398, 37.888996 ], [ -80.378384, 37.888973 ], [ -80.378329, 37.888948 ], [ -80.378249, 37.888968 ], [ -80.378234, 37.888995 ] ] } },
{ "type": "Feature", "properties": { "ID": 7, "elev": 687.324 }, "geometry": { "type": "LineString", "coordinates": [ [ -80.378415, 37.888996 ], [ -80.378397, 37.888964 ], [ -80.378329, 37.888938 ], [ -80.378238, 37.888961 ], [ -80.378221, 37.888995 ] ] } },
{ "type": "Feature", "properties": { "ID": 8, "elev": 688.848 }, "geometry": { "type": "LineString", "coordinates": [ [ -80.378432, 37.888996 ], [ -80.378409, 37.888957 ], [ -80.378329, 37.888929 ], [ -80.378238, 37.88895 ], [ -80.37819, 37.888994 ] ] } },
{ "type": "Feature", "properties": { "ID": 9, "elev": 691.896 }, "geometry": { "type": "LineString", "coordinates": [ [ -80.379825, 37.888937 ], [ -80.3798, 37.888949 ] ] } },
{ "type": "Feature", "properties": { "ID": 10, "elev": 685.8 }, "geometry": { "type": "LineString", "coordinates": [ [ -80.379057, 37.888925 ], [ -80.379056, 37.888931 ], [ -80.379057, 37.888934 ], [ -80.379059, 37.888931 ], [ -80.379057, 37.888925 ] ] } },
{ "type": "Feature", "properties": { "ID": 11, "elev": 690.372 }, "geometry": { "type": "LineString", "coordinates": [ [ -80.378653, 37.888997 ], [ -80.378646, 37.888974 ], [ -80.378602, 37.888946 ], [ -80.378541, 37.888956 ], [ -80.378488, 37.888984 ], [ -80.37842, 37.888947 ], [ -80.378329, 37.888919 ], [ -80.378227, 37.888944 ], [ -80.378156, 37.888994 ] ] } },
{ "type": "Feature", "properties": { "ID": 12, "elev": 701.04 }, "geometry": { "type": "LineString", "coordinates": [ [ -80.379342, 37.888982 ], [ -80.379351, 37.888942 ], [ -80.379319, 37.888925 ], [ -80.379273, 37.888942 ], [ -80.379284, 37.888982 ] ] } },
{ "type": "Feature", "properties": { "ID": 13, "elev": 687.324 }, "geometry": { "type": "LineString", "coordinates": [ [ -80.379072, 37.888981 ], [ -80.379073, 37.888931 ], [ -80.379057, 37.888917 ], [ -80.379044, 37.888922 ], [ -80.379045, 37.888981 ] ] } },
{ "type": "Feature", "properties": { "ID": 14, "elev": 691.896 }, "geometry": { "type": "LineString", "coordinates": [ [ -80.378675, 37.888997 ], [ -80.378662, 37.888965 ], [ -80.378614, 37.888932 ], [ -80.378534, 37.888937 ], [ -80.378488, 37.888955 ], [ -80.378329, 37.88891 ], [ -80.378227, 37.888934 ], [ -80.378158, 37.888973 ], [ -80.378142, 37.888994 ] ] } },
{ "type": "Feature", "properties": { "ID": 15, "elev": 688.848 }, "geometry": { "type": "LineString", "coordinates": [ [ -80.379081, 37.888981 ], [ -80.379079, 37.888932 ], [ -80.379057, 37.888913 ], [ -80.379036, 37.888922 ], [ -80.379032, 37.888981 ] ] } },
{ "type": "Feature", "properties": { "ID": 16, "elev": 690.372 }, "geometry": { "type": "LineString", "coordinates": [ [ -80.379089, 37.888981 ], [ -80.379081, 37.888923 ], [ -80.379046, 37.888912 ], [ -80.379027, 37.888922 ], [ -80.378999, 37.888999 ] ] } },
{ "type": "Feature", "properties": { "ID": 17, "elev": 691.896 }, "geometry": { "type": "LineString", "coordinates": [ [ -80.3791, 37.888981 ], [ -80.379086, 37.888923 ], [ -80.379046, 37.888909 ], [ -80.37902, 37.888922 ], [ -80.378974, 37.888999 ] ] } },
{ "type": "Feature", "properties": { "ID": 18, "elev": 693.42 }, "geometry": { "type": "LineString", "coordinates": [ [ -80.378695, 37.888997 ], [ -80.378682, 37.888961 ], [ -80.378614, 37.888921 ], [ -80.378545, 37.888918 ], [ -80.378488, 37.888937 ], [ -80.378409, 37.888909 ], [ -80.378329, 37.888902 ], [ -80.378227, 37.888926 ], [ -80.378148, 37.888972 ], [ -80.378131, 37.888994 ] ] } },
{ "type": "Feature", "properties": { "ID": 19, "elev": 687.324 }, "geometry": { "type": "LineString", "coordinates": [ [ -80.379916, 37.888931 ], [ -80.379887, 37.888906 ], [ -80.379867, 37.888931 ] ] } },
{ "type": "Feature", "properties": { "ID": 20, "elev": 693.42 }, "geometry": { "type": "LineString", "coordinates": [ [ -80.379111, 37.888981 ], [ -80.379091, 37.888923 ], [ -80.379056, 37.888904 ], [ -80.379023, 37.888913 ], [ -80.378966, 37.888967 ], [ -80.378959, 37.888998 ] ] } },
{ "type": "Feature", "properties": { "ID": 21, "elev": 694.944 }, "geometry": { "type": "LineString", "coordinates": [ [ -80.37912, 37.888981 ], [ -80.379097, 37.888923 ], [ -80.379057, 37.888901 ], [ -80.379014, 37.888913 ], [ -80.378954, 37.888958 ], [ -80.378945, 37.888998 ] ] } },
{ "type": "Feature", "properties": { "ID": 22, "elev": 696.468 }, "geometry": { "type": "LineString", "coordinates": [ [ -80.379131, 37.888981 ], [ -80.379104, 37.888923 ], [ -80.379057, 37.888899 ], [ -80.379012, 37.88891 ], [ -80.378977, 37.888938 ], [ -80.378923, 37.888958 ], [ -80.378914, 37.888998 ] ] } },
{ "type": "Feature", "properties": { "ID": 23, "elev": 688.848 }, "geometry": { "type": "LineString", "coordinates": [ [ -80.379952, 37.888932 ], [ -80.379934, 37.888909 ], [ -80.379888, 37.888892 ], [ -80.379854, 37.888931 ] ] } },
{ "type": "Feature", "properties": { "ID": 24, "elev": 694.944 }, "geometry": { "type": "LineString", "coordinates": [ [ -80.37871, 37.888997 ], [ -80.378697, 37.888957 ], [ -80.378625, 37.888917 ], [ -80.378557, 37.888903 ], [ -80.378477, 37.888919 ], [ -80.378386, 37.888886 ], [ -80.378238, 37.888912 ], [ -80.378147, 37.888966 ], [ -80.378122, 37.888994 ] ] } },
{ "type": "Feature", "properties": { "ID": 25, "elev": 690.372 }, "geometry": { "type": "LineString", "coordinates": [ [ -80.379997, 37.888932 ], [ -80.37997, 37.8889 ], [ -80.379899, 37.888881 ], [ -80.379876, 37.888886 ], [ -80.379842, 37.888931 ] ] } },
{ "type": "Feature", "properties": { "ID": 26, "elev": 696.468 }, "geometry": { "type": "LineString", "coordinates": [ [ -80.378728, 37.888997 ], [ -80.378706, 37.888948 ], [ -80.378636, 37.888913 ], [ -80.378557, 37.888892 ], [ -80.378466, 37.888905 ], [ -80.378375, 37.888869 ], [ -80.378227, 37.888909 ], [ -80.378147, 37.888958 ], [ -80.378112, 37.888994 ] ] } },
{ "type": "Feature", "properties": { "ID": 27, "elev": 697.992 }, "geometry": { "type": "LineString", "coordinates": [ [ -80.379146, 37.888981 ], [ -80.379128, 37.888941 ], [ -80.379069, 37.888897 ], [ -80.379023, 37.888901 ], [ -80.378966, 37.888931 ], [ -80.378909, 37.888945 ], [ -80.378761, 37.888952 ], [ -80.378557, 37.888884 ], [ -80.378466, 37.888893 ], [ -80.378375, 37.888859 ], [ -80.378227, 37.888901 ], [ -80.378094, 37.888994 ] ] } },
{ "type": "Feature", "properties": { "ID": 28, "elev": 681.228 }, "geometry": { "type": "LineString", "coordinates": [ [ -80.380556, 37.888899 ], [ -80.380564, 37.888876 ], [ -80.380599, 37.888859 ] ] } },
{ "type": "Feature", "properties": { "ID": 29, "elev": 699.516 }, "geometry": { "type": "LineString", "coordinates": [ [ -80.379175, 37.888982 ], [ -80.379158, 37.88895 ], [ -80.379069, 37.888893 ], [ -80.379012, 37.888899 ], [ -80.378909, 37.888933 ], [ -80.37883, 37.888935 ], [ -80.378705, 37.888919 ], [ -80.378557, 37.888876 ], [ -80.378478, 37.888876 ], [ -80.378375, 37.888852 ], [ -80.378227, 37.888893 ], [ -80.378124, 37.888957 ], [ -80.378034, 37.888994 ] ] } },
{ "type": "Feature", "properties": { "ID": 30, "elev": 701.04 }, "geometry": { "type": "LineString", "coordinates": [ [ -80.379199, 37.888982 ], [ -80.379185, 37.888941 ], [ -80.379069, 37.888889 ], [ -80.378909, 37.888922 ], [ -80.37883, 37.888919 ], [ -80.378512, 37.888865 ], [ -80.378444, 37.888835 ], [ -80.378273, 37.888868 ], [ -80.378124, 37.888942 ], [ -80.377989, 37.888975 ] ] } },
{ "type": "Feature", "properties": { "ID": 31, "elev": 681.228 }, "geometry": { "type": "LineString", "coordinates": [ [ -80.380613, 37.888845 ], [ -80.380622, 37.888839 ] ] } },
{ "type": "Feature", "properties": { "ID": 32, "elev": 702.564 }, "geometry": { "type": "LineString", "coordinates": [ [ -80.379369, 37.888983 ], [ -80.379375, 37.888933 ], [ -80.379342, 37.888909 ], [ -80.379216, 37.888917 ], [ -80.379057, 37.888882 ], [ -80.378909, 37.88891 ], [ -80.378796, 37.888903 ], [ -80.378705, 37.888878 ], [ -80.378523, 37.888857 ], [ -80.378444, 37.888816 ], [ -80.3784, 37.888838 ], [ -80.378262, 37.888858 ], [ -80.378125, 37.888925 ], [ -80.377982, 37.888945 ] ] } },
{ "type": "Feature", "properties": { "ID": 33, "elev": 705.612 }, "geometry": { "type": "LineString", "coordinates": [ [ -80.378634, 37.888812 ], [ -80.378637, 37.888809 ], [ -80.378643, 37.888812 ], [ -80.378637, 37.888815 ], [ -80.378634, 37.888812 ] ] } },
{ "type": "Feature", "properties": { "ID": 34, "elev": 676.656 }, "geometry": { "type": "LineString", "coordinates": [ [ -80.380502, 37.888812 ], [ -80.380501, 37.888831 ], [ -80.380514, 37.888841 ], [ -80.380526, 37.888813 ], [ -80.380514, 37.888804 ], [ -80.380502, 37.888812 ] ] } },
{ "type": "Feature", "properties": { "ID": 35, "elev": 679.704 }, "geometry": { "type": "LineString", "coordinates": [ [ -80.380528, 37.888899 ], [ -80.380559, 37.888853 ], [ -80.380645, 37.888812 ] ] } },
{ "type": "Feature", "properties": { "ID": 36, "elev": 678.18 }, "geometry": { "type": "LineString", "coordinates": [ [ -80.380672, 37.888791 ], [ -80.380662, 37.888771 ], [ -80.380628, 37.888761 ], [ -80.380586, 37.888795 ], [ -80.380605, 37.888809 ], [ -80.380645, 37.888801 ] ] } },
{ "type": "Feature", "properties": { "ID": 37, "elev": 678.18 }, "geometry": { "type": "LineString", "coordinates": [ [ -80.380514, 37.888757 ], [ -80.380464, 37.888786 ], [ -80.380449, 37.888813 ], [ -80.380468, 37.888841 ], [ -80.380513, 37.888867 ], [ -80.380569, 37.888804 ], [ -80.380514, 37.888757 ] ] } },
{ "type": "Feature", "properties": { "ID": 38, "elev": 678.18 }, "geometry": { "type": "LineString", "coordinates": [ [ -80.380691, 37.888742 ], [ -80.380617, 37.888713 ], [ -80.380588, 37.888732 ], [ -80.380617, 37.888755 ], [ -80.38069, 37.888758 ] ] } },
{ "type": "Feature", "properties": { "ID": 39, "elev": 679.704 }, "geometry": { "type": "LineString", "coordinates": [ [ -80.380566, 37.888687 ], [ -80.380583, 37.888682 ], [ -80.380589, 37.888696 ], [ -80.38056, 37.888696 ], [ -80.380566, 37.888687 ] ] } },
{ "type": "Feature", "properties": { "ID": 40, "elev": 705.612 }, "geometry": { "type": "LineString", "coordinates": [ [ -80.379016, 37.888652 ], [ -80.379025, 37.888644 ], [ -80.379025, 37.888658 ], [ -80.379016, 37.888652 ] ] } },
{ "type": "Feature", "properties": { "ID": 41, "elev": 708.66 }, "geometry": { "type": "LineString", "coordinates": [ [ -80.377871, 37.888636 ], [ -80.3779, 37.888638 ], [ -80.377915, 37.888655 ], [ -80.377899, 37.888672 ], [ -80.377871, 37.888677 ] ] } },
{ "type": "Feature", "properties": { "ID": 42, "elev": 676.656 }, "geometry": { "type": "LineString", "coordinates": [ [ -80.38047, 37.888623 ], [ -80.380429, 37.888659 ], [ -80.38044, 37.888677 ], [ -80.380469, 37.888686 ], [ -80.380506, 37.888678 ], [ -80.380519, 37.88866 ], [ -80.380504, 37.888636 ], [ -80.38047, 37.888623 ] ] } },
{ "type": "Feature", "properties": { "ID": 43, "elev": 678.18 }, "geometry": { "type": "LineString", "coordinates": [ [ -80.380459, 37.888583 ], [ -80.380401, 37.888668 ], [ -80.380446, 37.888706 ], [ -80.380515, 37.888708 ], [ -80.380545, 37.888669 ], [ -80.380527, 37.888608 ], [ -80.380504, 37.888583 ], [ -80.380459, 37.888583 ] ] } },
{ "type": "Feature", "properties": { "ID": 44, "elev": 679.704 }, "geometry": { "type": "LineString", "coordinates": [ [ -80.380713, 37.888732 ], [ -80.380682, 37.888706 ], [ -80.380674, 37.888676 ], [ -80.380572, 37.888655 ], [ -80.380525, 37.888552 ], [ -80.380446, 37.888551 ], [ -80.380373, 37.888668 ], [ -80.38044, 37.888749 ], [ -80.380406, 37.888803 ], [ -80.380435, 37.888849 ], [ -80.380426, 37.888898 ] ] } },
{ "type": "Feature", "properties": { "ID": 45, "elev": 681.228 }, "geometry": { "type": "LineString", "coordinates": [ [ -80.380759, 37.888671 ], [ -80.380657, 37.888642 ], [ -80.380618, 37.888606 ], [ -80.380584, 37.888594 ], [ -80.380527, 37.888533 ], [ -80.380437, 37.88852 ], [ -80.380414, 37.888528 ], [ -80.380396, 37.888551 ], [ -80.380392, 37.888587 ], [ -80.380329, 37.888668 ], [ -80.38039, 37.888749 ], [ -80.380367, 37.888812 ], [ -80.380404, 37.888848 ], [ -80.3804, 37.888898 ] ] } },
{ "type": "Feature", "properties": { "ID": 46, "elev": 707.136 }, "geometry": { "type": "LineString", "coordinates": [ [ -80.378431, 37.888504 ], [ -80.378447, 37.8885 ], [ -80.378449, 37.888514 ], [ -80.378435, 37.888518 ], [ -80.378431, 37.888504 ] ] } },
{ "type": "Feature", "properties": { "ID": 47, "elev": 707.136 }, "geometry": { "type": "LineString", "coordinates": [ [ -80.37785, 37.888489 ], [ -80.377992, 37.888458 ], [ -80.378162, 37.888477 ], [ -80.378242, 37.888502 ], [ -80.37831, 37.888505 ], [ -80.378351, 37.888567 ], [ -80.378343, 37.888614 ], [ -80.378269, 37.888684 ], [ -80.378149, 37.88874 ], [ -80.378101, 37.888791 ], [ -80.377937, 37.888863 ] ] } },
{ "type": "Feature", "properties": { "ID": 48, "elev": 707.136 }, "geometry": { "type": "LineString", "coordinates": [ [ -80.37843, 37.888459 ], [ -80.378452, 37.888469 ], [ -80.378447, 37.888485 ], [ -80.378428, 37.888477 ], [ -80.37843, 37.888459 ] ] } },
{ "type": "Feature", "properties": { "ID": 49, "elev": 693.42 }, "geometry": { "type": "LineString", "coordinates": [ [ -80.380966, 37.888458 ], [ -80.380927, 37.888446 ], [ -80.380966, 37.888445 ] ] } },
{ "type": "Feature", "properties": { "ID": 50, "elev": 682.752 }, "geometry": { "type": "LineString", "coordinates": [ [ -80.380783, 37.888633 ], [ -80.380724, 37.888634 ], [ -80.380652, 37.888567 ], [ -80.380554, 37.888534 ], [ -80.380536, 37.88848 ], [ -80.380571, 37.888426 ], [ -80.380551, 37.88841 ], [ -80.380528, 37.888413 ], [ -80.380512, 37.888425 ], [ -80.380494, 37.888496 ], [ -80.38046, 37.888476 ], [ -80.380437, 37.888479 ], [ -80.380361, 37.888551 ], [ -80.380293, 37.888677 ], [ -80.380298, 37.888713 ], [ -80.380346, 37.888767 ], [ -80.380323, 37.888803 ], [ -80.380326, 37.888839 ], [ -80.380263, 37.888899 ], [ -80.380229, 37.888897 ], [ -80.380219, 37.888915 ] ] } },
{ "type": "Feature", "properties": { "ID": 51, "elev": 684.276 }, "geometry": { "type": "LineString", "coordinates": [ [ -80.380874, 37.888562 ], [ -80.380789, 37.888529 ], [ -80.380721, 37.888544 ], [ -80.380595, 37.888525 ], [ -80.380608, 37.888426 ], [ -80.380563, 37.888391 ], [ -80.380535, 37.888389 ], [ -80.380449, 37.888426 ], [ -80.380382, 37.888506 ], [ -80.380325, 37.888551 ], [ -80.380276, 37.888665 ], [ -80.380269, 37.888712 ], [ -80.380295, 37.888767 ], [ -80.380277, 37.88883 ], [ -80.380229, 37.888851 ], [ -80.38016, 37.888933 ] ] } },
{ "type": "Feature", "properties": { "ID": 52, "elev": 701.04 }, "geometry": { "type": "LineString", "coordinates": [ [ -80.38013, 37.888387 ], [ -80.380153, 37.888382 ], [ -80.380164, 37.888414 ], [ -80.380142, 37.88842 ], [ -80.380119, 37.888407 ], [ -80.38013, 37.888387 ] ] } },
{ "type": "Feature", "properties": { "ID": 53, "elev": 705.612 }, "geometry": { "type": "LineString", "coordinates": [ [ -80.377827, 37.888428 ], [ -80.377913, 37.888408 ], [ -80.378152, 37.888396 ], [ -80.378322, 37.888432 ], [ -80.378374, 37.888378 ], [ -80.378402, 37.888369 ], [ -80.378527, 37.888446 ], [ -80.378617, 37.888482 ], [ -80.378731, 37.888475 ], [ -80.378867, 37.888505 ], [ -80.379028, 37.88858 ], [ -80.37898, 37.888649 ], [ -80.378975, 37.888679 ], [ -80.378923, 37.888685 ], [ -80.378888, 37.888703 ], [ -80.378854, 37.888749 ], [ -80.378809, 37.888734 ], [ -80.378752, 37.888741 ], [ -80.378604, 37.88871 ], [ -80.378579, 37.888722 ], [ -80.37857, 37.888767 ], [ -80.378535, 37.888779 ], [ -80.378399, 37.888735 ], [ -80.378331, 37.888733 ], [ -80.378251, 37.888773 ], [ -80.378136, 37.888866 ], [ -80.377937, 37.888902 ] ] } },
{ "type": "Feature", "properties": { "ID": 54, "elev": 685.8 }, "geometry": { "type": "LineString", "coordinates": [ [ -80.380874, 37.888552 ], [ -80.380778, 37.888505 ], [ -80.380721, 37.888515 ], [ -80.380686, 37.888507 ], [ -80.380651, 37.888426 ], [ -80.380608, 37.888405 ], [ -80.380574, 37.88837 ], [ -80.380529, 37.888375 ], [ -80.380432, 37.888416 ], [ -80.38038, 37.88848 ], [ -80.380297, 37.88855 ], [ -80.380265, 37.888604 ], [ -80.380247, 37.888775 ], [ -80.380196, 37.888847 ], [ -80.380091, 37.888932 ] ] } },
{ "type": "Feature", "properties": { "ID": 55, "elev": 696.468 }, "geometry": { "type": "LineString", "coordinates": [ [ -80.380284, 37.88837 ], [ -80.38029, 37.888365 ], [ -80.380296, 37.88837 ], [ -80.38029, 37.888378 ], [ -80.380284, 37.88837 ] ] } },
{ "type": "Feature", "properties": { "ID": 56, "elev": 699.516 }, "geometry": { "type": "LineString", "coordinates": [ [ -80.380136, 37.88836 ], [ -80.380165, 37.888363 ], [ -80.380192, 37.888397 ], [ -80.380178, 37.888433 ], [ -80.380096, 37.888486 ], [ -80.380028, 37.88847 ], [ -80.380018, 37.888459 ], [ -80.380031, 37.888423 ], [ -80.380136, 37.88836 ] ] } },
{ "type": "Feature", "properties": { "ID": 57, "elev": 704.088 }, "geometry": { "type": "LineString", "coordinates": [ [ -80.377805, 37.888382 ], [ -80.377845, 37.888378 ], [ -80.377891, 37.888356 ], [ -80.378129, 37.88834 ], [ -80.378323, 37.888369 ], [ -80.378414, 37.888339 ], [ -80.378459, 37.888374 ], [ -80.378652, 37.888407 ], [ -80.37872, 37.888442 ], [ -80.378879, 37.888464 ], [ -80.378981, 37.888452 ], [ -80.379116, 37.88849 ], [ -80.379151, 37.88852 ], [ -80.379197, 37.888513 ], [ -80.379299, 37.88853 ], [ -80.379348, 37.888554 ], [ -80.379367, 37.888612 ], [ -80.379458, 37.8886 ], [ -80.37949, 37.888609 ], [ -80.379504, 37.888627 ], [ -80.379517, 37.88869 ], [ -80.379492, 37.88878 ], [ -80.379468, 37.888793 ], [ -80.379399, 37.888789 ], [ -80.379308, 37.888851 ], [ -80.379194, 37.888866 ], [ -80.379012, 37.888871 ], [ -80.378915, 37.888895 ], [ -80.378796, 37.888888 ], [ -80.378728, 37.888858 ], [ -80.378591, 37.888857 ], [ -80.378569, 37.888827 ], [ -80.378528, 37.888838 ], [ -80.378478, 37.888807 ], [ -80.378353, 37.888763 ], [ -80.378334, 37.888774 ], [ -80.378333, 37.888819 ], [ -80.37825, 37.888838 ], [ -80.37817, 37.888891 ], [ -80.378034, 37.888922 ], [ -80.37796, 37.888924 ] ] } },
{ "type": "Feature", "properties": { "ID": 58, "elev": 687.324 }, "geometry": { "type": "LineString", "coordinates": [ [ -80.380874, 37.888543 ], [ -80.380733, 37.888465 ], [ -80.380697, 37.888426 ], [ -80.380629, 37.888399 ], [ -80.380597, 37.888345 ], [ -80.380563, 37.888345 ], [ -80.380454, 37.888389 ], [ -80.380415, 37.888413 ], [ -80.380263, 37.888559 ], [ -80.380226, 37.888613 ], [ -80.380237, 37.888676 ], [ -80.38022, 37.888775 ], [ -80.380184, 37.888829 ], [ -80.38012, 37.888883 ], [ -80.380069, 37.888898 ], [ -80.380059, 37.888932 ] ] } },
{ "type": "Feature", "properties": { "ID": 59, "elev": 688.848 }, "geometry": { "type": "LineString", "coordinates": [ [ -80.380874, 37.888532 ], [ -80.380789, 37.88849 ], [ -80.380722, 37.888421 ], [ -80.380667, 37.888399 ], [ -80.380644, 37.888372 ], [ -80.380632, 37.888317 ], [ -80.380552, 37.888311 ], [ -80.380507, 37.888353 ], [ -80.380426, 37.888383 ], [ -80.38038, 37.888435 ], [ -80.380324, 37.888469 ], [ -80.3803, 37.888517 ], [ -80.380235, 37.88855 ], [ -80.380197, 37.888613 ], [ -80.38021, 37.888658 ], [ -80.38019, 37.888694 ], [ -80.38022, 37.88873 ], [ -80.380207, 37.888772 ], [ -80.380144, 37.888838 ], [ -80.380062, 37.888883 ], [ -80.380046, 37.888932 ] ] } },
{ "type": "Feature", "properties": { "ID": 60, "elev": 691.896 }, "geometry": { "type": "LineString", "coordinates": [ [ -80.381081, 37.888302 ], [ -80.381075, 37.888307 ] ] } },
{ "type": "Feature", "properties": { "ID": 61, "elev": 702.564 }, "geometry": { "type": "LineString", "coordinates": [ [ -80.377783, 37.888316 ], [ -80.377857, 37.8883 ], [ -80.378141, 37.888283 ], [ -80.378232, 37.88829 ], [ -80.378334, 37.888318 ], [ -80.378448, 37.888297 ], [ -80.378494, 37.888321 ], [ -80.378732, 37.888373 ], [ -80.378788, 37.888415 ], [ -80.378993, 37.888423 ], [ -80.379061, 37.88845 ], [ -80.379175, 37.888467 ], [ -80.37922, 37.888457 ], [ -80.379402, 37.888519 ], [ -80.379538, 37.888548 ], [ -80.37962, 37.888601 ], [ -80.379673, 37.888659 ], [ -80.379677, 37.8887 ], [ -80.37973, 37.888755 ], [ -80.37982, 37.8888 ], [ -80.379822, 37.888818 ], [ -80.379797, 37.888844 ], [ -80.379721, 37.888872 ], [ -80.379687, 37.888917 ], [ -80.379683, 37.888948 ] ] } },
{ "type": "Feature", "properties": { "ID": 62, "elev": 690.372 }, "geometry": { "type": "LineString", "coordinates": [ [ -80.380877, 37.888522 ], [ -80.3808, 37.88849 ], [ -80.380735, 37.888417 ], [ -80.380686, 37.88839 ], [ -80.380663, 37.888354 ], [ -80.380654, 37.888305 ], [ -80.380575, 37.888288 ], [ -80.38053, 37.888264 ], [ -80.380503, 37.888317 ], [ -80.380415, 37.888373 ], [ -80.380381, 37.888419 ], [ -80.380323, 37.888449 ], [ -80.380289, 37.888513 ], [ -80.380197, 37.88855 ], [ -80.380146, 37.888694 ], [ -80.38019, 37.888739 ], [ -80.380187, 37.888766 ], [ -80.380131, 37.888829 ], [ -80.380058, 37.888867 ], [ -80.380026, 37.888932 ] ] } },
{ "type": "Feature", "properties": { "ID": 63, "elev": 697.992 }, "geometry": { "type": "LineString", "coordinates": [ [ -80.380755, 37.888246 ], [ -80.380779, 37.888246 ], [ -80.380789, 37.888274 ], [ -80.380757, 37.888292 ], [ -80.380734, 37.888273 ], [ -80.380755, 37.888246 ] ] } },
{ "type": "Feature", "properties": { "ID": 64, "elev": 696.468 }, "geometry": { "type": "LineString", "coordinates": [ [ -80.380786, 37.88821 ], [ -80.380826, 37.888209 ], [ -80.380928, 37.88824 ], [ -80.380958, 37.888265 ], [ -80.380848, 37.888289 ], [ -80.380757, 37.888322 ], [ -80.380723, 37.888299 ], [ -80.38071, 37.888264 ], [ -80.380735, 37.888235 ], [ -80.380786, 37.88821 ] ] } },
{ "type": "Feature", "properties": { "ID": 65, "elev": 694.944 }, "geometry": { "type": "LineString", "coordinates": [ [ -80.38078, 37.888192 ], [ -80.380826, 37.888188 ], [ -80.380905, 37.888212 ], [ -80.380974, 37.888214 ], [ -80.381006, 37.888284 ], [ -80.380859, 37.888307 ], [ -80.380813, 37.888362 ], [ -80.380756, 37.888359 ], [ -80.380711, 37.888313 ], [ -80.380693, 37.888264 ], [ -80.380722, 37.888228 ], [ -80.38078, 37.888192 ] ] } },
{ "type": "Feature", "properties": { "ID": 66, "elev": 690.372 }, "geometry": { "type": "LineString", "coordinates": [ [ -80.380462, 37.88818 ], [ -80.380462, 37.888182 ], [ -80.38047, 37.888182 ], [ -80.380462, 37.88818 ] ] } },
{ "type": "Feature", "properties": { "ID": 67, "elev": 693.42 }, "geometry": { "type": "LineString", "coordinates": [ [ -80.381104, 37.888278 ], [ -80.381064, 37.888282 ], [ -80.381031, 37.888302 ], [ -80.381007, 37.888337 ], [ -80.380939, 37.888326 ], [ -80.380916, 37.88835 ], [ -80.38087, 37.888369 ], [ -80.380836, 37.888409 ], [ -80.38085, 37.888445 ], [ -80.380824, 37.888478 ], [ -80.380781, 37.888445 ], [ -80.380773, 37.888409 ], [ -80.380742, 37.88839 ], [ -80.380659, 37.888264 ], [ -80.380792, 37.888167 ], [ -80.380894, 37.888165 ], [ -80.38094, 37.88818 ], [ -80.381042, 37.888165 ], [ -80.381088, 37.888194 ], [ -80.381085, 37.88823 ], [ -80.381105, 37.888271 ] ] } },
{ "type": "Feature", "properties": { "ID": 68, "elev": 691.896 }, "geometry": { "type": "LineString", "coordinates": [ [ -80.38092, 37.88849 ], [ -80.380823, 37.888493 ], [ -80.380801, 37.888482 ], [ -80.380688, 37.888356 ], [ -80.380666, 37.888293 ], [ -80.38059, 37.888273 ], [ -80.380579, 37.888254 ], [ -80.380804, 37.888143 ], [ -80.380997, 37.888152 ], [ -80.381043, 37.888122 ], [ -80.381128, 37.888185 ], [ -80.381151, 37.888217 ] ] } },
{ "type": "Feature", "properties": { "ID": 69, "elev": 701.04 }, "geometry": { "type": "LineString", "coordinates": [ [ -80.377762, 37.888135 ], [ -80.377892, 37.888127 ], [ -80.377926, 37.888149 ], [ -80.377972, 37.888146 ], [ -80.377998, 37.888124 ], [ -80.377995, 37.888085 ], [ -80.378041, 37.88807 ], [ -80.378063, 37.888097 ], [ -80.37804, 37.888187 ], [ -80.378008, 37.888223 ], [ -80.378017, 37.888237 ], [ -80.378244, 37.888233 ], [ -80.378324, 37.888251 ], [ -80.378472, 37.888229 ], [ -80.378505, 37.888262 ], [ -80.378803, 37.888344 ], [ -80.378902, 37.88839 ], [ -80.379096, 37.888415 ], [ -80.379198, 37.888414 ], [ -80.379277, 37.888446 ], [ -80.379436, 37.888465 ], [ -80.379572, 37.888498 ], [ -80.379728, 37.888592 ], [ -80.379776, 37.888655 ], [ -80.379833, 37.888678 ], [ -80.379873, 37.88871 ], [ -80.379853, 37.888809 ], [ -80.379797, 37.888865 ], [ -80.379713, 37.888917 ], [ -80.379701, 37.888948 ] ] } },
{ "type": "Feature", "properties": { "ID": 70, "elev": 688.848 }, "geometry": { "type": "LineString", "coordinates": [ [ -80.38069, 37.888084 ], [ -80.380683, 37.888102 ], [ -80.380738, 37.88812 ], [ -80.380747, 37.888111 ], [ -80.380735, 37.888093 ], [ -80.38069, 37.888084 ] ] } },
{ "type": "Feature", "properties": { "ID": 71, "elev": 687.324 }, "geometry": { "type": "LineString", "coordinates": [ [ -80.381291, 37.888073 ], [ -80.381282, 37.888055 ], [ -80.381271, 37.888056 ], [ -80.381258, 37.888078 ], [ -80.381212, 37.888105 ], [ -80.381198, 37.888141 ], [ -80.381211, 37.888163 ] ] } },
{ "type": "Feature", "properties": { "ID": 72, "elev": 690.372 }, "geometry": { "type": "LineString", "coordinates": [ [ -80.38069, 37.888048 ], [ -80.380702, 37.888041 ], [ -80.380705, 37.888048 ], [ -80.380702, 37.88805 ], [ -80.38069, 37.888048 ] ] } },
{ "type": "Feature", "properties": { "ID": 73, "elev": 699.516 }, "geometry": { "type": "LineString", "coordinates": [ [ -80.377739, 37.888113 ], [ -80.377836, 37.888104 ], [ -80.377893, 37.888085 ], [ -80.377949, 37.888109 ], [ -80.378014, 37.888025 ], [ -80.378041, 37.888016 ], [ -80.378075, 37.888039 ], [ -80.378109, 37.888036 ], [ -80.378134, 37.88807 ], [ -80.378132, 37.888095 ], [ -80.378101, 37.888124 ], [ -80.378099, 37.888178 ], [ -80.378313, 37.888175 ], [ -80.378484, 37.888132 ], [ -80.378504, 37.888144 ], [ -80.378529, 37.888198 ], [ -80.378914, 37.888321 ], [ -80.378971, 37.888359 ], [ -80.379084, 37.888375 ], [ -80.379198, 37.888376 ], [ -80.379255, 37.888399 ], [ -80.379437, 37.888412 ], [ -80.379596, 37.888454 ], [ -80.379833, 37.888591 ], [ -80.379867, 37.88862 ], [ -80.37989, 37.888662 ], [ -80.379953, 37.888702 ], [ -80.379907, 37.888756 ], [ -80.379889, 37.888801 ], [ -80.379778, 37.888899 ], [ -80.379728, 37.888923 ], [ -80.379717, 37.888948 ] ] } },
{ "type": "Feature", "properties": { "ID": 74, "elev": 687.324 }, "geometry": { "type": "LineString", "coordinates": [ [ -80.38076, 37.887971 ], [ -80.380749, 37.888003 ], [ -80.380804, 37.888072 ], [ -80.38085, 37.888083 ], [ -80.38088, 37.888076 ], [ -80.380885, 37.888058 ], [ -80.380861, 37.88804 ], [ -80.380816, 37.888047 ], [ -80.380806, 37.888039 ], [ -80.380814, 37.887994 ], [ -80.380794, 37.887976 ], [ -80.38076, 37.887971 ] ] } },
{ "type": "Feature", "properties": { "ID": 75, "elev": 688.848 }, "geometry": { "type": "LineString", "coordinates": [ [ -80.381346, 37.888002 ], [ -80.381328, 37.887982 ], [ -80.381283, 37.887968 ], [ -80.38126, 37.888025 ], [ -80.38118, 37.888071 ], [ -80.381156, 37.888149 ], [ -80.381196, 37.888168 ] ] } },
{ "type": "Feature", "properties": { "ID": 76, "elev": 697.992 }, "geometry": { "type": "LineString", "coordinates": [ [ -80.377695, 37.887934 ], [ -80.377813, 37.887969 ], [ -80.377836, 37.888077 ], [ -80.377882, 37.888047 ], [ -80.377927, 37.888051 ], [ -80.377961, 37.888035 ], [ -80.377962, 37.888017 ], [ -80.377937, 37.887997 ], [ -80.378008, 37.88793 ], [ -80.378053, 37.887954 ], [ -80.378133, 37.887951 ], [ -80.378156, 37.887962 ], [ -80.378178, 37.888016 ], [ -80.378173, 37.888098 ], [ -80.378185, 37.888116 ], [ -80.378245, 37.888112 ], [ -80.378393, 37.888074 ], [ -80.378429, 37.888099 ], [ -80.378507, 37.888106 ], [ -80.378801, 37.888238 ], [ -80.379011, 37.888282 ], [ -80.379062, 37.888328 ], [ -80.379176, 37.888335 ], [ -80.379221, 37.888313 ], [ -80.379278, 37.888347 ], [ -80.379471, 37.888362 ], [ -80.379585, 37.888392 ], [ -80.379687, 37.888439 ], [ -80.379834, 37.888546 ], [ -80.379868, 37.888542 ], [ -80.379925, 37.888557 ], [ -80.379982, 37.888427 ], [ -80.380154, 37.888338 ], [ -80.380231, 37.888406 ], [ -80.380227, 37.888424 ], [ -80.380154, 37.888469 ], [ -80.380107, 37.888522 ], [ -80.379981, 37.888584 ], [ -80.379967, 37.888603 ], [ -80.37996, 37.888657 ], [ -80.379985, 37.888711 ], [ -80.37998, 37.888756 ], [ -80.380037, 37.888752 ], [ -80.380051, 37.888783 ], [ -80.380025, 37.888804 ], [ -80.379957, 37.88879 ], [ -80.379877, 37.888825 ], [ -80.37975, 37.888926 ], [ -80.379736, 37.888948 ] ] } },
{ "type": "Feature", "properties": { "ID": 77, "elev": 688.848 }, "geometry": { "type": "LineString", "coordinates": [ [ -80.380737, 37.887934 ], [ -80.380714, 37.887957 ], [ -80.380715, 37.887985 ], [ -80.380765, 37.888084 ], [ -80.380872, 37.888108 ], [ -80.380955, 37.888076 ], [ -80.380952, 37.888063 ], [ -80.380771, 37.88794 ], [ -80.380737, 37.887934 ] ] } },
{ "type": "Feature", "properties": { "ID": 78, "elev": 691.896 }, "geometry": { "type": "LineString", "coordinates": [ [ -80.381052, 37.887923 ], [ -80.381074, 37.887933 ], [ -80.381043, 37.888053 ], [ -80.381022, 37.88804 ], [ -80.38103, 37.887986 ], [ -80.380987, 37.88795 ], [ -80.381052, 37.887923 ] ] } },
{ "type": "Feature", "properties": { "ID": 79, "elev": 690.372 }, "geometry": { "type": "LineString", "coordinates": [ [ -80.38109, 37.887885 ], [ -80.381101, 37.887895 ], [ -80.381115, 37.887888 ], [ -80.381102, 37.887881 ], [ -80.38109, 37.887885 ] ] } },
{ "type": "Feature", "properties": { "ID": 80, "elev": 697.992 }, "geometry": { "type": "LineString", "coordinates": [ [ -80.377673, 37.887835 ], [ -80.377694, 37.887852 ], [ -80.377673, 37.887866 ] ] } },
{ "type": "Feature", "properties": { "ID": 81, "elev": 690.372 }, "geometry": { "type": "LineString", "coordinates": [ [ -80.381384, 37.887822 ], [ -80.381363, 37.887845 ], [ -80.381262, 37.887888 ], [ -80.381274, 37.887916 ], [ -80.381238, 37.887942 ], [ -80.381192, 37.887946 ], [ -80.381125, 37.887978 ], [ -80.381078, 37.888037 ], [ -80.381066, 37.8881 ], [ -80.381107, 37.888149 ], [ -80.381187, 37.888199 ] ] } },
{ "type": "Feature", "properties": { "ID": 82, "elev": 687.324 }, "geometry": { "type": "LineString", "coordinates": [ [ -80.380613, 37.887805 ], [ -80.380606, 37.887813 ], [ -80.380647, 37.887831 ], [ -80.380676, 37.887822 ], [ -80.380659, 37.887809 ], [ -80.380613, 37.887805 ] ] } },
{ "type": "Feature", "properties": { "ID": 83, "elev": 688.848 }, "geometry": { "type": "LineString", "coordinates": [ [ -80.380591, 37.887784 ], [ -80.380572, 37.887804 ], [ -80.38059, 37.887829 ], [ -80.380636, 37.887848 ], [ -80.380704, 37.887841 ], [ -80.380749, 37.887881 ], [ -80.380772, 37.887874 ], [ -80.380829, 37.887823 ], [ -80.380818, 37.887812 ], [ -80.380738, 37.887818 ], [ -80.380716, 37.887792 ], [ -80.380591, 37.887784 ] ] } },
{ "type": "Feature", "properties": { "ID": 84, "elev": 696.468 }, "geometry": { "type": "LineString", "coordinates": [ [ -80.377674, 37.887757 ], [ -80.37777, 37.887787 ], [ -80.377861, 37.887865 ], [ -80.377917, 37.887955 ], [ -80.378022, 37.887871 ], [ -80.378111, 37.887863 ], [ -80.378128, 37.887908 ], [ -80.378217, 37.887945 ], [ -80.378213, 37.888044 ], [ -80.378223, 37.888056 ], [ -80.378337, 37.888057 ], [ -80.378405, 37.888045 ], [ -80.378462, 37.888057 ], [ -80.378598, 37.888056 ], [ -80.3787, 37.888116 ], [ -80.378738, 37.888155 ], [ -80.378885, 37.888209 ], [ -80.379108, 37.888253 ], [ -80.379165, 37.888283 ], [ -80.379506, 37.888308 ], [ -80.379673, 37.888358 ], [ -80.379845, 37.888497 ], [ -80.379925, 37.888476 ], [ -80.379971, 37.888416 ], [ -80.380064, 37.888378 ], [ -80.380131, 37.888315 ], [ -80.380154, 37.888315 ], [ -80.380188, 37.888336 ], [ -80.380245, 37.888336 ], [ -80.38026, 37.888361 ], [ -80.38024, 37.888379 ], [ -80.380279, 37.888397 ], [ -80.380257, 37.888433 ], [ -80.380175, 37.888471 ], [ -80.380118, 37.888539 ], [ -80.380003, 37.888612 ], [ -80.379999, 37.888684 ], [ -80.380047, 37.888729 ], [ -80.380075, 37.888784 ], [ -80.380036, 37.888822 ], [ -80.379968, 37.888807 ], [ -80.379877, 37.888839 ], [ -80.379758, 37.888949 ] ] } },
{ "type": "Feature", "properties": { "ID": 85, "elev": 694.944 }, "geometry": { "type": "LineString", "coordinates": [ [ -80.381156, 37.887744 ], [ -80.38122, 37.887798 ], [ -80.381212, 37.887816 ], [ -80.381182, 37.887827 ], [ -80.381154, 37.887825 ], [ -80.381135, 37.887807 ], [ -80.381156, 37.887744 ] ] } },
{ "type": "Feature", "properties": { "ID": 86, "elev": 681.228 }, "geometry": { "type": "LineString", "coordinates": [ [ -80.380887, 37.887703 ], [ -80.380883, 37.887724 ], [ -80.380915, 37.887724 ], [ -80.380917, 37.887706 ], [ -80.380887, 37.887703 ] ] } },
{ "type": "Feature", "properties": { "ID": 87, "elev": 682.752 }, "geometry": { "type": "LineString", "coordinates": [ [ -80.380887, 37.887686 ], [ -80.380864, 37.887724 ], [ -80.380909, 37.887741 ], [ -80.380938, 37.887725 ], [ -80.380938, 37.887707 ], [ -80.38091, 37.887686 ], [ -80.380887, 37.887686 ] ] } },
{ "type": "Feature", "properties": { "ID": 88, "elev": 687.324 }, "geometry": { "type": "LineString", "coordinates": [ [ -80.379125, 37.887666 ], [ -80.379124, 37.887675 ], [ -80.379136, 37.887675 ], [ -80.379136, 37.887666 ], [ -80.379125, 37.887666 ] ] } },
{ "type": "Feature", "properties": { "ID": 89, "elev": 684.276 }, "geometry": { "type": "LineString", "coordinates": [ [ -80.380887, 37.887668 ], [ -80.38085, 37.887706 ], [ -80.380848, 37.887724 ], [ -80.380887, 37.887751 ], [ -80.380909, 37.887752 ], [ -80.380944, 37.887738 ], [ -80.380957, 37.887716 ], [ -80.38091, 37.88767 ], [ -80.380887, 37.887668 ] ] } },
{ "type": "Feature", "properties": { "ID": 90, "elev": 694.944 }, "geometry": { "type": "LineString", "coordinates": [ [ -80.377652, 37.887631 ], [ -80.377783, 37.887655 ], [ -80.37793, 37.887706 ], [ -80.377962, 37.887745 ], [ -80.377972, 37.887799 ], [ -80.377958, 37.887844 ], [ -80.377974, 37.887868 ], [ -80.378134, 37.887811 ], [ -80.378193, 37.887827 ], [ -80.378188, 37.887872 ], [ -80.378213, 37.88788 ], [ -80.378241, 37.887927 ], [ -80.378248, 37.887981 ], [ -80.378274, 37.887999 ], [ -80.378371, 37.888019 ], [ -80.378417, 37.887992 ], [ -80.378462, 37.887988 ], [ -80.378497, 37.887969 ], [ -80.378531, 37.887978 ], [ -80.378599, 37.887974 ], [ -80.378814, 37.888065 ], [ -80.378905, 37.888135 ], [ -80.379007, 37.888161 ], [ -80.379063, 37.888196 ], [ -80.379211, 37.888211 ], [ -80.379302, 37.888245 ], [ -80.379359, 37.88824 ], [ -80.379404, 37.888255 ], [ -80.379518, 37.888254 ], [ -80.379665, 37.888281 ], [ -80.379756, 37.888336 ], [ -80.379869, 37.888449 ], [ -80.380031, 37.888378 ], [ -80.38012, 37.888297 ], [ -80.380188, 37.888304 ], [ -80.380291, 37.888255 ], [ -80.380303, 37.888271 ], [ -80.380303, 37.888325 ], [ -80.380341, 37.88837 ], [ -80.38034, 37.888388 ], [ -80.380255, 37.888457 ], [ -80.380187, 37.888488 ], [ -80.380066, 37.888603 ], [ -80.380062, 37.888711 ], [ -80.380106, 37.888784 ], [ -80.380036, 37.888838 ], [ -80.379968, 37.888827 ], [ -80.379877, 37.888852 ], [ -80.379772, 37.888949 ] ] } },
{ "type": "Feature", "properties": { "ID": 91, "elev": 693.42 }, "geometry": { "type": "LineString", "coordinates": [ [ -80.381341, 37.887767 ], [ -80.381238, 37.887848 ], [ -80.381159, 37.887852 ], [ -80.381101, 37.887816 ], [ -80.381095, 37.887752 ], [ -80.381143, 37.887681 ], [ -80.381172, 37.88766 ], [ -80.381246, 37.88764 ] ] } },
{ "type": "Feature", "properties": { "ID": 92, "elev": 694.944 }, "geometry": { "type": "LineString", "coordinates": [ [ -80.381336, 37.887751 ], [ -80.381296, 37.887759 ], [ -80.38125, 37.887749 ], [ -80.381197, 37.887699 ], [ -80.381201, 37.887681 ], [ -80.38126, 37.887641 ] ] } },
{ "type": "Feature", "properties": { "ID": 93, "elev": 691.896 }, "geometry": { "type": "LineString", "coordinates": [ [ -80.381358, 37.887803 ], [ -80.381272, 37.88786 ], [ -80.38117, 37.887882 ], [ -80.381091, 37.887842 ], [ -80.380988, 37.887845 ], [ -80.380988, 37.887803 ], [ -80.381058, 37.887779 ], [ -80.381036, 37.887725 ], [ -80.381126, 37.887667 ], [ -80.381246, 37.887629 ] ] } },
{ "type": "Feature", "properties": { "ID": 94, "elev": 693.42 }, "geometry": { "type": "LineString", "coordinates": [ [ -80.37763, 37.887547 ], [ -80.37801, 37.887621 ], [ -80.378139, 37.887683 ], [ -80.378155, 37.887719 ], [ -80.378144, 37.887764 ], [ -80.378202, 37.887787 ], [ -80.378226, 37.887782 ], [ -80.37827, 37.887738 ], [ -80.378294, 37.887693 ], [ -80.378332, 37.887693 ], [ -80.378365, 37.88772 ], [ -80.378389, 37.887792 ], [ -80.378373, 37.887814 ], [ -80.378316, 37.887837 ], [ -80.378281, 37.887872 ], [ -80.378271, 37.887909 ], [ -80.378281, 37.887927 ], [ -80.378418, 37.887898 ], [ -80.378611, 37.887892 ], [ -80.378815, 37.887942 ], [ -80.378861, 37.88796 ], [ -80.378986, 37.888057 ], [ -80.379245, 37.888161 ], [ -80.379393, 37.888178 ], [ -80.379439, 37.888198 ], [ -80.379632, 37.888207 ], [ -80.379733, 37.888241 ], [ -80.379869, 37.888341 ], [ -80.379905, 37.888395 ], [ -80.379949, 37.888397 ], [ -80.37999, 37.888378 ], [ -80.380109, 37.888265 ], [ -80.380188, 37.888281 ], [ -80.380255, 37.888235 ], [ -80.380263, 37.888172 ], [ -80.380313, 37.888172 ], [ -80.380317, 37.888226 ], [ -80.380392, 37.888271 ], [ -80.380335, 37.888307 ], [ -80.380373, 37.888362 ], [ -80.380377, 37.888389 ], [ -80.380312, 37.888424 ], [ -80.380244, 37.888496 ], [ -80.380186, 37.888518 ], [ -80.380106, 37.888598 ], [ -80.380099, 37.888703 ], [ -80.380127, 37.888775 ], [ -80.380116, 37.888798 ], [ -80.380096, 37.88882 ], [ -80.380013, 37.888861 ], [ -80.379945, 37.888853 ], [ -80.379876, 37.888863 ], [ -80.379782, 37.888949 ] ] } },
{ "type": "Feature", "properties": { "ID": 95, "elev": 699.516 }, "geometry": { "type": "LineString", "coordinates": [ [ -80.380653, 37.887534 ], [ -80.380684, 37.887532 ], [ -80.3807, 37.887552 ], [ -80.380694, 37.887606 ], [ -80.38066, 37.887634 ], [ -80.380592, 37.887612 ], [ -80.380577, 37.887587 ], [ -80.380592, 37.887568 ], [ -80.380633, 37.88757 ], [ -80.380653, 37.887534 ] ] } },
{ "type": "Feature", "properties": { "ID": 96, "elev": 691.896 }, "geometry": { "type": "LineString", "coordinates": [ [ -80.377631, 37.887489 ], [ -80.37775, 37.887482 ], [ -80.377864, 37.887506 ], [ -80.37792, 37.887532 ], [ -80.378091, 37.887551 ], [ -80.378233, 37.887611 ], [ -80.378287, 37.887657 ], [ -80.378381, 37.887702 ], [ -80.378421, 37.887783 ], [ -80.378429, 37.887836 ], [ -80.378463, 37.887843 ], [ -80.378532, 37.887834 ], [ -80.378577, 37.887845 ], [ -80.378668, 37.887827 ], [ -80.378759, 37.887861 ], [ -80.378975, 37.887875 ], [ -80.379031, 37.887913 ], [ -80.379065, 37.887975 ], [ -80.379132, 37.88803 ], [ -80.379257, 37.888097 ], [ -80.379348, 37.888116 ], [ -80.379507, 37.888128 ], [ -80.379564, 37.888146 ], [ -80.379632, 37.888141 ], [ -80.379689, 37.888153 ], [ -80.379813, 37.888205 ], [ -80.379972, 37.88834 ], [ -80.380017, 37.888325 ], [ -80.380052, 37.888296 ], [ -80.380121, 37.888166 ], [ -80.380166, 37.888171 ], [ -80.380166, 37.888194 ], [ -80.380135, 37.888225 ], [ -80.380154, 37.888256 ], [ -80.380177, 37.888264 ], [ -80.380216, 37.888225 ], [ -80.380229, 37.888171 ], [ -80.380246, 37.888157 ], [ -80.380326, 37.88815 ], [ -80.380371, 37.888163 ], [ -80.380371, 37.888191 ], [ -80.380493, 37.888245 ], [ -80.380494, 37.888272 ], [ -80.380482, 37.88829 ], [ -80.380407, 37.888317 ], [ -80.380391, 37.888398 ], [ -80.380324, 37.888431 ], [ -80.380275, 37.888505 ], [ -80.380198, 37.88853 ], [ -80.380175, 37.888549 ], [ -80.380125, 37.888658 ], [ -80.380124, 37.888703 ], [ -80.380146, 37.888766 ], [ -80.38012, 37.88882 ], [ -80.380013, 37.888893 ], [ -80.379945, 37.888872 ], [ -80.379888, 37.88887 ], [ -80.379826, 37.888931 ] ] } },
{ "type": "Feature", "properties": { "ID": 97, "elev": 697.992 }, "geometry": { "type": "LineString", "coordinates": [ [ -80.380625, 37.887498 ], [ -80.38065, 37.887496 ], [ -80.380695, 37.887514 ], [ -80.380723, 37.887543 ], [ -80.38073, 37.887615 ], [ -80.380692, 37.88766 ], [ -80.380614, 37.887661 ], [ -80.380541, 37.887605 ], [ -80.380554, 37.887542 ], [ -80.380625, 37.887498 ] ] } },
{ "type": "Feature", "properties": { "ID": 98, "elev": 696.468 }, "geometry": { "type": "LineString", "coordinates": [ [ -80.380636, 37.88748 ], [ -80.380695, 37.887499 ], [ -80.380738, 37.887543 ], [ -80.380753, 37.887633 ], [ -80.380694, 37.88768 ], [ -80.38058, 37.887666 ], [ -80.380524, 37.887638 ], [ -80.380508, 37.887605 ], [ -80.380514, 37.887542 ], [ -80.380636, 37.88748 ] ] } },
{ "type": "Feature", "properties": { "ID": 99, "elev": 694.944 }, "geometry": { "type": "LineString", "coordinates": [ [ -80.380625, 37.887471 ], [ -80.38065, 37.887465 ], [ -80.380684, 37.887477 ], [ -80.380752, 37.887543 ], [ -80.380771, 37.887625 ], [ -80.380724, 37.887714 ], [ -80.380648, 37.887688 ], [ -80.380571, 37.887687 ], [ -80.3805, 37.887705 ], [ -80.380437, 37.887668 ], [ -80.380491, 37.887533 ], [ -80.380625, 37.887471 ] ] } },
{ "type": "Feature", "properties": { "ID": 100, "elev": 693.42 }, "geometry": { "type": "LineString", "coordinates": [ [ -80.380642, 37.887453 ], [ -80.380684, 37.887462 ], [ -80.380766, 37.887543 ], [ -80.380788, 37.887607 ], [ -80.380765, 37.887724 ], [ -80.380739, 37.88774 ], [ -80.380682, 37.887738 ], [ -80.380641, 37.887705 ], [ -80.380614, 37.887701 ], [ -80.380577, 37.887723 ], [ -80.3805, 37.887742 ], [ -80.380455, 37.887696 ], [ -80.380397, 37.887668 ], [ -80.380429, 37.887632 ], [ -80.380479, 37.887512 ], [ -80.380642, 37.887453 ] ] } },
{ "type": "Feature", "properties": { "ID": 101, "elev": 691.896 }, "geometry": { "type": "LineString", "coordinates": [ [ -80.380642, 37.887435 ], [ -80.380662, 37.887431 ], [ -80.380684, 37.887448 ], [ -80.380769, 37.887525 ], [ -80.380793, 37.887571 ], [ -80.380803, 37.887616 ], [ -80.380782, 37.887724 ], [ -80.38075, 37.887754 ], [ -80.380656, 37.887768 ], [ -80.380602, 37.88775 ], [ -80.380557, 37.887752 ], [ -80.380522, 37.887776 ], [ -80.380465, 37.887787 ], [ -80.380431, 37.887816 ], [ -80.380404, 37.887749 ], [ -80.380432, 37.88773 ], [ -80.380436, 37.887713 ], [ -80.380398, 37.887699 ], [ -80.38038, 37.887677 ], [ -80.380423, 37.887623 ], [ -80.38046, 37.887506 ], [ -80.380642, 37.887435 ] ] } },
{ "type": "Feature", "properties": { "ID": 102, "elev": 690.372 }, "geometry": { "type": "LineString", "coordinates": [ [ -80.38063, 37.887426 ], [ -80.380673, 37.887423 ], [ -80.380775, 37.887514 ], [ -80.380818, 37.887616 ], [ -80.380793, 37.887733 ], [ -80.380767, 37.887769 ], [ -80.380659, 37.887783 ], [ -80.380579, 37.887766 ], [ -80.380486, 37.887839 ], [ -80.380521, 37.887911 ], [ -80.380669, 37.887919 ], [ -80.380681, 37.887994 ], [ -80.380668, 37.888039 ], [ -80.380623, 37.888016 ], [ -80.380601, 37.887938 ], [ -80.380532, 37.88795 ], [ -80.38051, 37.887917 ], [ -80.380487, 37.887933 ], [ -80.380396, 37.887953 ], [ -80.38035, 37.887951 ], [ -80.380327, 37.887938 ], [ -80.380351, 37.887864 ], [ -80.380385, 37.887821 ], [ -80.380385, 37.887713 ], [ -80.38037, 37.887677 ], [ -80.380413, 37.887623 ], [ -80.380451, 37.887497 ], [ -80.380514, 37.887459 ], [ -80.380593, 37.887447 ], [ -80.38063, 37.887426 ] ] } },
{ "type": "Feature", "properties": { "ID": 103, "elev": 690.372 }, "geometry": { "type": "LineString", "coordinates": [ [ -80.377631, 37.887398 ], [ -80.377842, 37.88741 ], [ -80.378023, 37.887469 ], [ -80.378114, 37.887483 ], [ -80.378338, 37.887603 ], [ -80.378442, 37.887744 ], [ -80.378487, 37.887751 ], [ -80.37851, 37.887743 ], [ -80.378601, 37.887775 ], [ -80.378703, 37.887761 ], [ -80.378782, 37.887775 ], [ -80.378862, 37.887808 ], [ -80.378953, 37.887795 ], [ -80.379021, 37.887827 ], [ -80.379078, 37.887822 ], [ -80.379164, 37.887868 ], [ -80.379174, 37.887887 ], [ -80.379166, 37.887914 ], [ -80.379204, 37.887968 ], [ -80.379337, 37.888057 ], [ -80.379451, 37.888076 ], [ -80.37961, 37.888064 ], [ -80.379644, 37.888089 ], [ -80.379837, 37.888139 ], [ -80.3799, 37.888179 ], [ -80.379931, 37.888215 ], [ -80.380029, 37.888261 ], [ -80.380073, 37.888207 ], [ -80.380062, 37.888171 ], [ -80.38007, 37.888153 ], [ -80.380156, 37.888131 ], [ -80.380246, 37.888137 ], [ -80.380326, 37.888114 ], [ -80.38036, 37.888115 ], [ -80.38044, 37.888151 ], [ -80.380497, 37.888154 ], [ -80.38053, 37.888219 ], [ -80.380644, 37.888158 ], [ -80.380747, 37.888151 ], [ -80.380815, 37.888121 ], [ -80.380872, 37.888129 ], [ -80.380974, 37.888119 ], [ -80.381002, 37.888067 ], [ -80.380967, 37.888013 ], [ -80.38089, 37.887977 ], [ -80.380828, 37.887967 ], [ -80.3808, 37.88794 ], [ -80.380787, 37.887895 ], [ -80.380874, 37.88784 ], [ -80.380931, 37.887852 ], [ -80.380954, 37.887844 ], [ -80.380973, 37.887797 ], [ -80.381012, 37.887761 ], [ -80.381022, 37.887716 ], [ -80.38107, 37.887689 ], [ -80.381103, 37.887653 ], [ -80.381149, 37.887647 ], [ -80.381246, 37.887605 ] ] } },
{ "type": "Feature", "properties": { "ID": 104, "elev": 675.132 }, "geometry": { "type": "LineString", "coordinates": [ [ -80.381134, 37.887413 ], [ -80.381124, 37.887406 ] ] } },
{ "type": "Feature", "properties": { "ID": 105, "elev": 670.56 }, "geometry": { "type": "LineString", "coordinates": [ [ -80.380969, 37.887384 ], [ -80.380949, 37.887427 ], [ -80.380969, 37.887451 ], [ -80.381005, 37.887427 ], [ -80.380969, 37.887384 ] ] } },
{ "type": "Feature", "properties": { "ID": 106, "elev": 688.848 }, "geometry": { "type": "LineString", "coordinates": [ [ -80.377633, 37.887236 ], [ -80.377667, 37.887239 ], [ -80.377763, 37.887287 ], [ -80.377956, 37.887333 ], [ -80.378065, 37.887385 ], [ -80.37816, 37.887402 ], [ -80.378308, 37.887453 ], [ -80.378394, 37.887495 ], [ -80.378427, 37.887522 ], [ -80.378438, 37.887549 ], [ -80.378486, 37.887585 ], [ -80.378522, 37.887595 ], [ -80.378579, 37.887589 ], [ -80.378658, 37.887663 ], [ -80.378738, 37.887661 ], [ -80.378794, 37.887709 ], [ -80.378874, 37.887685 ], [ -80.378885, 37.887696 ], [ -80.378874, 37.887741 ], [ -80.378885, 37.887761 ], [ -80.378953, 37.887739 ], [ -80.379158, 37.887758 ], [ -80.379215, 37.887778 ], [ -80.379331, 37.887914 ], [ -80.379344, 37.887987 ], [ -80.379395, 37.888019 ], [ -80.379634, 37.887985 ], [ -80.379724, 37.888021 ], [ -80.379804, 37.888019 ], [ -80.379844, 37.888061 ], [ -80.379951, 37.888103 ], [ -80.380007, 37.88816 ], [ -80.380065, 37.888127 ], [ -80.380122, 37.888115 ], [ -80.380179, 37.888053 ], [ -80.380207, 37.888063 ], [ -80.380247, 37.888113 ], [ -80.380276, 37.888109 ], [ -80.380304, 37.888076 ], [ -80.380338, 37.888067 ], [ -80.380417, 37.888095 ], [ -80.380463, 37.888088 ], [ -80.380531, 37.888104 ], [ -80.380565, 37.888087 ], [ -80.380589, 37.887981 ], [ -80.380498, 37.887968 ], [ -80.380471, 37.887974 ], [ -80.380431, 37.888019 ], [ -80.380361, 37.888053 ], [ -80.380343, 37.888046 ], [ -80.380339, 37.88801 ], [ -80.380268, 37.887946 ], [ -80.380321, 37.887902 ], [ -80.380334, 37.887848 ], [ -80.380363, 37.887804 ], [ -80.380361, 37.887676 ], [ -80.380405, 37.887623 ], [ -80.38041, 37.88756 ], [ -80.380444, 37.887488 ], [ -80.380514, 37.887442 ], [ -80.380594, 37.887433 ], [ -80.380628, 37.88741 ], [ -80.380662, 37.887408 ], [ -80.380781, 37.887498 ], [ -80.380836, 37.887625 ], [ -80.38081, 37.887706 ], [ -80.380812, 37.887751 ], [ -80.380852, 37.887768 ], [ -80.380863, 37.887797 ], [ -80.38092, 37.887825 ], [ -80.380943, 37.887818 ], [ -80.381005, 37.887716 ], [ -80.38106, 37.88768 ], [ -80.381064, 37.887662 ], [ -80.381049, 37.887653 ], [ -80.381149, 37.887637 ], [ -80.381226, 37.887586 ] ] } },
{ "type": "Feature", "properties": { "ID": 107, "elev": 672.084 }, "geometry": { "type": "LineString", "coordinates": [ [ -80.380978, 37.887225 ], [ -80.380933, 37.887427 ], [ -80.380969, 37.887465 ], [ -80.381041, 37.887428 ], [ -80.380992, 37.887378 ], [ -80.380976, 37.887337 ], [ -80.380993, 37.887315 ], [ -80.381044, 37.887298 ] ] } },
{ "type": "Feature", "properties": { "ID": 108, "elev": 673.608 }, "geometry": { "type": "LineString", "coordinates": [ [ -80.380976, 37.887196 ], [ -80.380958, 37.887211 ], [ -80.380943, 37.887346 ], [ -80.380917, 37.887427 ], [ -80.380968, 37.887479 ], [ -80.381078, 37.887428 ], [ -80.38105, 37.887374 ], [ -80.381001, 37.887337 ], [ -80.381044, 37.887312 ] ] } },
{ "type": "Feature", "properties": { "ID": 109, "elev": 675.132 }, "geometry": { "type": "LineString", "coordinates": [ [ -80.380932, 37.887129 ], [ -80.380858, 37.887146 ], [ -80.380839, 37.887183 ], [ -80.380846, 37.887204 ], [ -80.380868, 37.887215 ], [ -80.380938, 37.887202 ], [ -80.380903, 37.887436 ], [ -80.380968, 37.887496 ], [ -80.381134, 37.887428 ] ] } },
{ "type": "Feature", "properties": { "ID": 110, "elev": 679.704 }, "geometry": { "type": "LineString", "coordinates": [ [ -80.380616, 37.887074 ], [ -80.380653, 37.887073 ], [ -80.380656, 37.887101 ], [ -80.380619, 37.887101 ], [ -80.380616, 37.887074 ] ] } },
{ "type": "Feature", "properties": { "ID": 111, "elev": 678.18 }, "geometry": { "type": "LineString", "coordinates": [ [ -80.380449, 37.887063 ], [ -80.380432, 37.887073 ], [ -80.380433, 37.887118 ], [ -80.380402, 37.887208 ], [ -80.380413, 37.88722 ], [ -80.380482, 37.887232 ], [ -80.38055, 37.887188 ], [ -80.380556, 37.887164 ], [ -80.380595, 37.887128 ], [ -80.380474, 37.887064 ], [ -80.380449, 37.887063 ] ] } },
{ "type": "Feature", "properties": { "ID": 112, "elev": 684.276 }, "geometry": { "type": "LineString", "coordinates": [ [ -80.37886, 37.887029 ], [ -80.378883, 37.887029 ], [ -80.378892, 37.887047 ], [ -80.378887, 37.887074 ], [ -80.378868, 37.887086 ], [ -80.378854, 37.887074 ], [ -80.37886, 37.887029 ] ] } },
{ "type": "Feature", "properties": { "ID": 113, "elev": 675.132 }, "geometry": { "type": "LineString", "coordinates": [ [ -80.38088, 37.887026 ], [ -80.380835, 37.887084 ], [ -80.380881, 37.887101 ], [ -80.380909, 37.887098 ] ] } },
{ "type": "Feature", "properties": { "ID": 114, "elev": 676.656 }, "geometry": { "type": "LineString", "coordinates": [ [ -80.380864, 37.887024 ], [ -80.380801, 37.88706 ], [ -80.380733, 37.887046 ], [ -80.380709, 37.887065 ], [ -80.380722, 37.887088 ], [ -80.380778, 37.887093 ], [ -80.380798, 37.887111 ], [ -80.380886, 37.887436 ], [ -80.380968, 37.887515 ], [ -80.381134, 37.887439 ] ] } },
{ "type": "Feature", "properties": { "ID": 115, "elev": 687.324 }, "geometry": { "type": "LineString", "coordinates": [ [ -80.377657, 37.886998 ], [ -80.377742, 37.887047 ], [ -80.37781, 37.887103 ], [ -80.377901, 37.887116 ], [ -80.37798, 37.887162 ], [ -80.37806, 37.887184 ], [ -80.378207, 37.88729 ], [ -80.37832, 37.887316 ], [ -80.378558, 37.887406 ], [ -80.378604, 37.887389 ], [ -80.378649, 37.887398 ], [ -80.378666, 37.887415 ], [ -80.378669, 37.887487 ], [ -80.378705, 37.887526 ], [ -80.378796, 37.887541 ], [ -80.378864, 37.887526 ], [ -80.37891, 37.887533 ], [ -80.379, 37.887571 ], [ -80.379, 37.887647 ], [ -80.379113, 37.887636 ], [ -80.379176, 37.887661 ], [ -80.379193, 37.887683 ], [ -80.379272, 37.887707 ], [ -80.37933, 37.887752 ], [ -80.37938, 37.887834 ], [ -80.379419, 37.887853 ], [ -80.379409, 37.887933 ], [ -80.379463, 37.887934 ], [ -80.379521, 37.887897 ], [ -80.379543, 37.887906 ], [ -80.3796, 37.887888 ], [ -80.379759, 37.887906 ], [ -80.379816, 37.887926 ], [ -80.379862, 37.887922 ], [ -80.379938, 37.887963 ], [ -80.379989, 37.888017 ], [ -80.380099, 37.888075 ], [ -80.380131, 37.888063 ], [ -80.380225, 37.887925 ], [ -80.380305, 37.887889 ], [ -80.380312, 37.887847 ], [ -80.380347, 37.887785 ], [ -80.380354, 37.887676 ], [ -80.380396, 37.887623 ], [ -80.380396, 37.887559 ], [ -80.380441, 37.887479 ], [ -80.380525, 37.88742 ], [ -80.380588, 37.887416 ], [ -80.380628, 37.887384 ], [ -80.380707, 37.887417 ], [ -80.380776, 37.887411 ], [ -80.380737, 37.887444 ], [ -80.380798, 37.887494 ], [ -80.380861, 37.887634 ], [ -80.380821, 37.887724 ], [ -80.380886, 37.887777 ], [ -80.380955, 37.88777 ], [ -80.381014, 37.887689 ], [ -80.38102, 37.88768 ], [ -80.380964, 37.887653 ], [ -80.38099, 37.887608 ], [ -80.381047, 37.887633 ], [ -80.381138, 37.887627 ], [ -80.381223, 37.88758 ] ] } },
{ "type": "Feature", "properties": { "ID": 116, "elev": 678.18 }, "geometry": { "type": "LineString", "coordinates": [ [ -80.380852, 37.887008 ], [ -80.380801, 37.887046 ], [ -80.380711, 37.887031 ], [ -80.380687, 37.887065 ], [ -80.380698, 37.887132 ], [ -80.380755, 37.887133 ], [ -80.380778, 37.887151 ], [ -80.380809, 37.887237 ], [ -80.380831, 37.887372 ], [ -80.380869, 37.887436 ], [ -80.380968, 37.887531 ], [ -80.381137, 37.887442 ] ] } },
{ "type": "Feature", "properties": { "ID": 117, "elev": 682.752 }, "geometry": { "type": "LineString", "coordinates": [ [ -80.378619, 37.886982 ], [ -80.378617, 37.886982 ], [ -80.378623, 37.886982 ], [ -80.378619, 37.886982 ] ] } },
{ "type": "Feature", "properties": { "ID": 118, "elev": 679.704 }, "geometry": { "type": "LineString", "coordinates": [ [ -80.380842, 37.887006 ], [ -80.380802, 37.887033 ], [ -80.380711, 37.887016 ], [ -80.380642, 37.887042 ], [ -80.380585, 37.887045 ], [ -80.38054, 37.887028 ], [ -80.380518, 37.886974 ], [ -80.380495, 37.886956 ], [ -80.380438, 37.886959 ], [ -80.380413, 37.88701 ], [ -80.380392, 37.88702 ], [ -80.380347, 37.88699 ], [ -80.380279, 37.886968 ], [ -80.380262, 37.886982 ], [ -80.380238, 37.887081 ], [ -80.380153, 37.887108 ], [ -80.380096, 37.887092 ], [ -80.380073, 37.887096 ], [ -80.380059, 37.887152 ], [ -80.380129, 37.887269 ], [ -80.380186, 37.887251 ], [ -80.38022, 37.88722 ], [ -80.380266, 37.887221 ], [ -80.380356, 37.887311 ], [ -80.380446, 37.88736 ], [ -80.380528, 37.887299 ], [ -80.380519, 37.887245 ], [ -80.38055, 37.887213 ], [ -80.38063, 37.887198 ], [ -80.380755, 37.887222 ], [ -80.380799, 37.887286 ], [ -80.380849, 37.887436 ], [ -80.380968, 37.887546 ], [ -80.381059, 37.887512 ], [ -80.381156, 37.887454 ] ] } },
{ "type": "Feature", "properties": { "ID": 119, "elev": 685.8 }, "geometry": { "type": "LineString", "coordinates": [ [ -80.377681, 37.886933 ], [ -80.377777, 37.886974 ], [ -80.377908, 37.886988 ], [ -80.378151, 37.887087 ], [ -80.37848, 37.887188 ], [ -80.378594, 37.887249 ], [ -80.378651, 37.88723 ], [ -80.378673, 37.887235 ], [ -80.378704, 37.887271 ], [ -80.378708, 37.887316 ], [ -80.378797, 37.887382 ], [ -80.378945, 37.887379 ], [ -80.379138, 37.887432 ], [ -80.379206, 37.887463 ], [ -80.379242, 37.887499 ], [ -80.379293, 37.887527 ], [ -80.379406, 37.887671 ], [ -80.379489, 37.887726 ], [ -80.37951, 37.887792 ], [ -80.379601, 37.887775 ], [ -80.37993, 37.88785 ], [ -80.380021, 37.887891 ], [ -80.38007, 37.887963 ], [ -80.380123, 37.887996 ], [ -80.380145, 37.887987 ], [ -80.380312, 37.88782 ], [ -80.380346, 37.887676 ], [ -80.380386, 37.887623 ], [ -80.380382, 37.887568 ], [ -80.38043, 37.887479 ], [ -80.380514, 37.8874 ], [ -80.380573, 37.887398 ], [ -80.380617, 37.88735 ], [ -80.380696, 37.887401 ], [ -80.380776, 37.887392 ], [ -80.380795, 37.887399 ], [ -80.380787, 37.887453 ], [ -80.380843, 37.887571 ], [ -80.380892, 37.887625 ], [ -80.380835, 37.887724 ], [ -80.380886, 37.887762 ], [ -80.380933, 37.887761 ], [ -80.380966, 37.887731 ], [ -80.380969, 37.887698 ], [ -80.380929, 37.887652 ], [ -80.380979, 37.887591 ], [ -80.38107, 37.887619 ], [ -80.381138, 37.8876 ], [ -80.381212, 37.88755 ] ] } },
{ "type": "Feature", "properties": { "ID": 120, "elev": 681.228 }, "geometry": { "type": "LineString", "coordinates": [ [ -80.380173, 37.886936 ], [ -80.380211, 37.886951 ], [ -80.38021, 37.887063 ], [ -80.380119, 37.887065 ], [ -80.380085, 37.887054 ], [ -80.380059, 37.887035 ], [ -80.380055, 37.887008 ], [ -80.380097, 37.88696 ], [ -80.380173, 37.886936 ] ] } },
{ "type": "Feature", "properties": { "ID": 121, "elev": 684.276 }, "geometry": { "type": "LineString", "coordinates": [ [ -80.378278, 37.886909 ], [ -80.378271, 37.886926 ], [ -80.3783, 37.88694 ], [ -80.378301, 37.886919 ], [ -80.378278, 37.886909 ] ] } },
{ "type": "Feature", "properties": { "ID": 122, "elev": 693.42 }, "geometry": { "type": "LineString", "coordinates": [ [ -80.378369, 37.8869 ], [ -80.378375, 37.886918 ], [ -80.378369, 37.886928 ], [ -80.378365, 37.886918 ], [ -80.378369, 37.8869 ] ] } },
{ "type": "Feature", "properties": { "ID": 123, "elev": 685.8 }, "geometry": { "type": "LineString", "coordinates": [ [ -80.380709, 37.886899 ], [ -80.380712, 37.886923 ], [ -80.38073, 37.886917 ] ] } },
{ "type": "Feature", "properties": { "ID": 124, "elev": 685.8 }, "geometry": { "type": "LineString", "coordinates": [ [ -80.380774, 37.88693 ], [ -80.380745, 37.886947 ], [ -80.380655, 37.886948 ], [ -80.380667, 37.88688 ] ] } },
{ "type": "Feature", "properties": { "ID": 125, "elev": 684.276 }, "geometry": { "type": "LineString", "coordinates": [ [ -80.380819, 37.88697 ], [ -80.380768, 37.886993 ], [ -80.380609, 37.886961 ], [ -80.380598, 37.886939 ], [ -80.380615, 37.886861 ] ] } },
{ "type": "Feature", "properties": { "ID": 126, "elev": 684.276 }, "geometry": { "type": "LineString", "coordinates": [ [ -80.37775, 37.886862 ], [ -80.377994, 37.886918 ], [ -80.37813, 37.886936 ], [ -80.378156, 37.886908 ], [ -80.378137, 37.886872 ], [ -80.378126, 37.886795 ] ] } },
{ "type": "Feature", "properties": { "ID": 127, "elev": 690.372 }, "geometry": { "type": "LineString", "coordinates": [ [ -80.378399, 37.886778 ], [ -80.378398, 37.886918 ], [ -80.37838, 37.886947 ], [ -80.378351, 37.886936 ], [ -80.378337, 37.8869 ], [ -80.378345, 37.886778 ] ] } },
{ "type": "Feature", "properties": { "ID": 128, "elev": 691.896 }, "geometry": { "type": "LineString", "coordinates": [ [ -80.378387, 37.886778 ], [ -80.378388, 37.886918 ], [ -80.378369, 37.88694 ], [ -80.37835, 37.886909 ], [ -80.378361, 37.886778 ] ] } },
{ "type": "Feature", "properties": { "ID": 129, "elev": 688.848 }, "geometry": { "type": "LineString", "coordinates": [ [ -80.378631, 37.886775 ], [ -80.378654, 37.886777 ], [ -80.37868, 37.886802 ], [ -80.378654, 37.886829 ], [ -80.378631, 37.886831 ], [ -80.378562, 37.886802 ], [ -80.378631, 37.886775 ] ] } },
{ "type": "Feature", "properties": { "ID": 130, "elev": 681.228 }, "geometry": { "type": "LineString", "coordinates": [ [ -80.380831, 37.886989 ], [ -80.38079, 37.887021 ], [ -80.380688, 37.887 ], [ -80.380631, 37.887022 ], [ -80.380563, 37.887019 ], [ -80.380541, 37.886941 ], [ -80.380509, 37.88692 ], [ -80.380501, 37.886893 ], [ -80.380473, 37.886893 ], [ -80.380466, 37.88692 ], [ -80.38045, 37.886929 ], [ -80.380433, 37.88692 ], [ -80.380439, 37.886893 ], [ -80.380387, 37.886865 ], [ -80.380368, 37.886771 ] ] } },
{ "type": "Feature", "properties": { "ID": 131, "elev": 682.752 }, "geometry": { "type": "LineString", "coordinates": [ [ -80.380819, 37.886989 ], [ -80.380779, 37.887007 ], [ -80.3807, 37.886988 ], [ -80.38062, 37.886983 ], [ -80.380581, 37.887002 ], [ -80.380559, 37.886875 ], [ -80.38053, 37.886856 ], [ -80.380416, 37.886862 ], [ -80.38039, 37.886771 ] ] } },
{ "type": "Feature", "properties": { "ID": 132, "elev": 688.848 }, "geometry": { "type": "LineString", "coordinates": [ [ -80.378483, 37.886761 ], [ -80.378477, 37.886801 ], [ -80.378427, 37.886812 ], [ -80.378402, 37.886936 ], [ -80.37838, 37.886953 ], [ -80.378342, 37.886936 ], [ -80.378296, 37.886793 ] ] } },
{ "type": "Feature", "properties": { "ID": 133, "elev": 685.8 }, "geometry": { "type": "LineString", "coordinates": [ [ -80.37872, 37.886744 ], [ -80.378759, 37.886794 ], [ -80.378676, 37.886902 ], [ -80.378653, 37.88691 ], [ -80.378608, 37.88688 ], [ -80.378495, 37.886845 ], [ -80.37847, 37.886855 ], [ -80.378418, 37.886945 ], [ -80.378391, 37.886962 ], [ -80.378357, 37.886961 ], [ -80.378329, 37.886945 ], [ -80.378294, 37.886881 ], [ -80.378272, 37.886796 ] ] } },
{ "type": "Feature", "properties": { "ID": 134, "elev": 687.324 }, "geometry": { "type": "LineString", "coordinates": [ [ -80.378681, 37.886744 ], [ -80.378725, 37.886803 ], [ -80.378665, 37.886865 ], [ -80.378642, 37.886869 ], [ -80.378552, 37.886823 ], [ -80.378483, 37.886818 ], [ -80.378443, 37.886855 ], [ -80.378408, 37.886945 ], [ -80.37838, 37.886958 ], [ -80.378335, 37.886936 ], [ -80.378287, 37.886796 ] ] } },
{ "type": "Feature", "properties": { "ID": 135, "elev": 684.276 }, "geometry": { "type": "LineString", "coordinates": [ [ -80.378729, 37.886732 ], [ -80.378768, 37.886772 ], [ -80.378773, 37.886794 ], [ -80.378664, 37.886942 ], [ -80.378642, 37.886944 ], [ -80.378596, 37.886911 ], [ -80.37846, 37.886911 ], [ -80.37843, 37.886954 ], [ -80.378403, 37.886969 ], [ -80.378289, 37.886958 ], [ -80.378251, 37.886971 ], [ -80.378255, 37.88698 ], [ -80.378481, 37.887077 ], [ -80.378731, 37.887154 ], [ -80.378749, 37.887172 ], [ -80.378742, 37.887208 ], [ -80.378753, 37.887225 ], [ -80.378844, 37.887257 ], [ -80.379014, 37.887266 ], [ -80.379139, 37.887295 ], [ -80.379207, 37.887288 ], [ -80.379241, 37.887319 ], [ -80.379402, 37.887383 ], [ -80.379516, 37.887447 ], [ -80.379617, 37.887528 ], [ -80.379671, 37.887595 ], [ -80.379791, 37.887655 ], [ -80.379841, 37.887673 ], [ -80.379898, 37.887675 ], [ -80.379947, 37.88771 ], [ -80.379988, 37.887764 ], [ -80.380033, 37.887775 ], [ -80.380101, 37.887813 ], [ -80.380169, 37.887896 ], [ -80.380203, 37.887892 ], [ -80.380295, 37.887808 ], [ -80.380312, 37.88773 ], [ -80.380373, 37.887622 ], [ -80.38037, 37.887568 ], [ -80.380425, 37.887469 ], [ -80.380503, 37.887389 ], [ -80.380571, 37.887369 ], [ -80.380629, 37.887323 ], [ -80.380648, 37.887326 ], [ -80.380696, 37.887378 ], [ -80.380799, 37.887386 ], [ -80.380836, 37.887526 ], [ -80.380899, 37.887572 ], [ -80.380945, 37.887586 ], [ -80.38099, 37.887579 ], [ -80.381047, 37.887596 ], [ -80.381184, 37.887532 ] ] } },
{ "type": "Feature", "properties": { "ID": 136, "elev": 667.512 }, "geometry": { "type": "LineString", "coordinates": [ [ -80.379971, 37.886733 ], [ -80.379973, 37.886764 ], [ -80.379985, 37.886768 ], [ -80.379986, 37.886733 ] ] } },
{ "type": "Feature", "properties": { "ID": 137, "elev": 667.512 }, "geometry": { "type": "LineString", "coordinates": [ [ -80.37977, 37.886731 ], [ -80.37973, 37.886799 ], [ -80.379746, 37.886818 ], [ -80.37978, 37.886809 ], [ -80.379865, 37.886732 ] ] } },
{ "type": "Feature", "properties": { "ID": 138, "elev": 669.036 }, "geometry": { "type": "LineString", "coordinates": [ [ -80.379943, 37.886732 ], [ -80.379962, 37.886773 ], [ -80.379996, 37.886792 ], [ -80.380008, 37.886782 ], [ -80.380007, 37.886733 ] ] } },
{ "type": "Feature", "properties": { "ID": 139, "elev": 669.036 }, "geometry": { "type": "LineString", "coordinates": [ [ -80.379737, 37.886731 ], [ -80.379715, 37.886808 ], [ -80.379734, 37.886831 ], [ -80.379768, 37.886838 ], [ -80.379803, 37.886826 ], [ -80.379889, 37.886732 ] ] } },
{ "type": "Feature", "properties": { "ID": 140, "elev": 670.56 }, "geometry": { "type": "LineString", "coordinates": [ [ -80.379727, 37.886731 ], [ -80.379707, 37.886808 ], [ -80.379723, 37.886833 ], [ -80.379768, 37.886851 ], [ -80.379814, 37.886833 ], [ -80.379859, 37.886773 ], [ -80.379917, 37.886739 ], [ -80.379962, 37.886782 ], [ -80.380007, 37.8868 ], [ -80.380019, 37.886791 ], [ -80.380018, 37.886733 ] ] } },
{ "type": "Feature", "properties": { "ID": 141, "elev": 672.084 }, "geometry": { "type": "LineString", "coordinates": [ [ -80.379719, 37.886731 ], [ -80.379701, 37.886808 ], [ -80.379723, 37.886841 ], [ -80.379768, 37.886863 ], [ -80.37984, 37.886827 ], [ -80.379864, 37.886782 ], [ -80.379906, 37.886754 ], [ -80.379985, 37.886801 ], [ -80.380019, 37.886804 ], [ -80.380027, 37.886733 ] ] } },
{ "type": "Feature", "properties": { "ID": 142, "elev": 673.608 }, "geometry": { "type": "LineString", "coordinates": [ [ -80.379712, 37.886731 ], [ -80.379695, 37.886808 ], [ -80.379734, 37.886861 ], [ -80.379768, 37.886874 ], [ -80.379859, 37.886828 ], [ -80.379877, 37.886782 ], [ -80.379905, 37.886763 ], [ -80.379996, 37.886811 ], [ -80.380023, 37.886809 ], [ -80.380036, 37.886791 ], [ -80.380035, 37.886733 ] ] } },
{ "type": "Feature", "properties": { "ID": 143, "elev": 675.132 }, "geometry": { "type": "LineString", "coordinates": [ [ -80.379705, 37.886731 ], [ -80.379689, 37.886808 ], [ -80.379728, 37.886871 ], [ -80.379768, 37.886886 ], [ -80.379877, 37.886836 ], [ -80.379884, 37.886791 ], [ -80.379905, 37.886772 ], [ -80.379996, 37.886817 ], [ -80.38003, 37.886814 ], [ -80.380043, 37.886801 ], [ -80.380043, 37.886733 ] ] } },
{ "type": "Feature", "properties": { "ID": 144, "elev": 676.656 }, "geometry": { "type": "LineString", "coordinates": [ [ -80.379697, 37.886731 ], [ -80.379681, 37.886808 ], [ -80.379722, 37.886889 ], [ -80.379768, 37.886899 ], [ -80.37987, 37.886871 ], [ -80.379904, 37.886827 ], [ -80.379905, 37.886787 ], [ -80.379996, 37.886826 ], [ -80.38003, 37.886823 ], [ -80.380052, 37.886801 ], [ -80.380052, 37.886733 ] ] } },
{ "type": "Feature", "properties": { "ID": 145, "elev": 678.18 }, "geometry": { "type": "LineString", "coordinates": [ [ -80.3796, 37.886731 ], [ -80.379633, 37.886749 ], [ -80.379678, 37.886736 ], [ -80.37967, 37.886808 ], [ -80.379703, 37.886898 ], [ -80.379734, 37.886915 ], [ -80.379893, 37.886905 ], [ -80.379939, 37.886816 ], [ -80.379996, 37.886841 ], [ -80.380041, 37.886831 ], [ -80.380067, 37.886801 ], [ -80.380067, 37.886733 ] ] } },
{ "type": "Feature", "properties": { "ID": 146, "elev": 679.704 }, "geometry": { "type": "LineString", "coordinates": [ [ -80.378788, 37.886726 ], [ -80.378807, 37.886785 ], [ -80.378795, 37.886848 ], [ -80.378813, 37.886884 ], [ -80.378903, 37.886918 ], [ -80.37896, 37.88691 ], [ -80.378994, 37.886938 ], [ -80.379074, 37.886943 ], [ -80.37912, 37.886976 ], [ -80.37921, 37.887012 ], [ -80.37955, 37.887097 ], [ -80.379618, 37.887105 ], [ -80.379822, 37.887164 ], [ -80.379879, 37.887154 ], [ -80.379919, 37.887115 ], [ -80.379993, 37.887017 ], [ -80.380022, 37.886945 ], [ -80.380126, 37.886855 ], [ -80.380155, 37.886782 ], [ -80.38019, 37.886758 ], [ -80.380193, 37.886734 ] ] } },
{ "type": "Feature", "properties": { "ID": 147, "elev": 679.704 }, "geometry": { "type": "LineString", "coordinates": [ [ -80.379514, 37.88673 ], [ -80.379485, 37.886758 ], [ -80.37936, 37.886743 ], [ -80.379349, 37.886729 ] ] } },
{ "type": "Feature", "properties": { "ID": 148, "elev": 681.228 }, "geometry": { "type": "LineString", "coordinates": [ [ -80.378771, 37.886726 ], [ -80.378794, 37.886785 ], [ -80.378767, 37.886876 ], [ -80.378801, 37.886911 ], [ -80.378865, 37.88693 ], [ -80.378892, 37.886959 ], [ -80.378971, 37.886984 ], [ -80.379062, 37.88699 ], [ -80.379119, 37.887014 ], [ -80.379164, 37.887055 ], [ -80.379334, 37.887101 ], [ -80.37947, 37.887173 ], [ -80.37964, 37.887241 ], [ -80.379685, 37.887249 ], [ -80.379742, 37.887236 ], [ -80.379913, 37.887258 ], [ -80.379996, 37.887332 ], [ -80.380037, 37.88734 ], [ -80.380083, 37.887324 ], [ -80.380095, 37.887342 ], [ -80.380078, 37.887378 ], [ -80.380094, 37.887387 ], [ -80.380298, 37.887424 ], [ -80.380343, 37.887455 ], [ -80.380469, 37.887389 ], [ -80.380503, 37.887343 ], [ -80.380573, 37.887317 ], [ -80.380584, 37.88729 ], [ -80.380547, 37.887254 ], [ -80.380548, 37.887236 ], [ -80.380618, 37.88722 ], [ -80.380677, 37.887255 ], [ -80.380674, 37.887288 ], [ -80.380754, 37.887289 ], [ -80.380788, 37.887307 ], [ -80.380833, 37.887436 ], [ -80.380893, 37.887508 ], [ -80.380956, 37.887555 ], [ -80.381059, 37.887536 ], [ -80.381156, 37.887486 ] ] } },
{ "type": "Feature", "properties": { "ID": 149, "elev": 682.752 }, "geometry": { "type": "LineString", "coordinates": [ [ -80.378756, 37.886726 ], [ -80.378783, 37.886794 ], [ -80.378736, 37.886875 ], [ -80.378742, 37.886911 ], [ -80.378801, 37.886937 ], [ -80.378846, 37.886942 ], [ -80.378877, 37.886984 ], [ -80.378926, 37.886985 ], [ -80.378971, 37.887009 ], [ -80.37905, 37.88702 ], [ -80.379118, 37.887047 ], [ -80.37915, 37.887084 ], [ -80.379137, 37.887102 ], [ -80.379073, 37.88709 ], [ -80.379014, 37.887102 ], [ -80.378982, 37.887119 ], [ -80.378964, 37.887146 ], [ -80.379117, 37.88719 ], [ -80.379197, 37.887188 ], [ -80.379276, 37.887231 ], [ -80.379367, 37.887244 ], [ -80.379458, 37.887281 ], [ -80.379526, 37.887285 ], [ -80.379665, 37.88733 ], [ -80.379775, 37.887382 ], [ -80.379858, 37.887439 ], [ -80.379945, 37.887468 ], [ -80.379973, 37.88753 ], [ -80.380047, 37.887555 ], [ -80.380058, 37.887604 ], [ -80.380182, 37.887648 ], [ -80.380262, 37.887699 ], [ -80.380296, 37.887693 ], [ -80.380346, 37.887631 ], [ -80.380373, 37.887514 ], [ -80.380415, 37.887451 ], [ -80.380515, 37.88736 ], [ -80.380583, 37.887335 ], [ -80.380617, 37.887302 ], [ -80.380765, 37.887325 ], [ -80.38081, 37.887387 ], [ -80.380862, 37.887517 ], [ -80.380956, 37.887568 ], [ -80.381025, 37.88757 ], [ -80.38107, 37.887558 ], [ -80.381139, 37.887527 ], [ -80.381172, 37.887496 ] ] } }
]
}
